SL-14 R/B               
1 18749U 88001B   25333.30599117  .00000578  00000+0  64164-4 0  9991
2 18749  82.5120 289.7834 0017277 205.8059 154.2297 14.85400706 27120
COSMOS 1933             
1 18958U 88020A   25333.29693495  .00003686  00000+0  18536-3 0  9990
2 18958  82.5140 350.1609 0004498 166.3135 193.8221 15.16943683 35007
SL-3 R/B                
1 19046U 88032B   25333.22214984  .00006182  00000+0  30028-3 0  9991
2 19046  97.5070 312.0396 0025342 221.2101 138.7221 15.18533220 36855
SL-16 R/B               
1 19120U 88039B   25333.28839379 -.00000107  00000+0 -27778-4 0  9990
2 19120  71.0146 280.8391 0020226 138.8002 221.4654 14.19592926944132
COSMOS 1953             
1 19210U 88050A   25333.26911690  .00006538  00000+0  24719-3 0  9991
2 19210  82.5084 259.0945 0013662 112.3136 247.9553 15.26694775 22451
SL-8 R/B                
1 19257U 88053B   25333.33911997  .00000254  00000+0  90839-4 0  9999
2 19257  74.0472 297.4174 0019369 146.2836 322.5902 14.38846115962160
COSMOS 1975             
1 19573U 88093A   25333.14457270  .00008328  00000+0  32048-3 0  9999
2 19573  82.5211 218.4343 0011817 155.9121 204.2673 15.26165501  4069
SL-14 R/B               
1 19574U 88093B   25332.90947106  .00000588  00000+0  64989-4 0  9995
2 19574  82.5294 136.6461 0021113  15.8122  98.6164 14.85525961986072
SL-16 R/B               
1 19650U 88102B   25333.32019018  .00000047  00000+0  47999-4 0  9992
2 19650  71.0008   2.6803 0013682 173.6013 186.5287 14.16137021912688
INTERCOSMOS 24          
1 20261U 89080A   25332.99925842  .00000844  00000+0  24312-3 0  9999
2 20261  82.6046 169.8871 1188636 166.3867 197.2515 12.59402313654127
SL-14 R/B               
1 20262U 89080C   25333.22310849  .00000446  00000+0  12646-3 0  9997
2 20262  82.5940 237.6950 1230874  54.4727 316.4979 12.50396283647597
DELTA 1 R/B             
1 20323U 89089B   25333.18862032  .00000403  00000+0  10826-3 0  9996
2 20323  97.0762 191.5731 0070713  80.3248 280.5929 14.50554993881167
