CCSDS_OMM_VERS = 2.0
CREATION_DATE  = 
ORIGINATOR     = 

OBJECT_NAME    = SL-14 R/B
OBJECT_ID      = 1988-001B
CENTER_NAME    = EARTH
REF_FRAME      = TEME
TIME_SYSTEM    = UTC
MEAN_ELEMENT_THEORY = SGP/SGP4

EPOCH          = 2025-11-29T07:20:37.637088
MEAN_MOTION    = 14.85400706
ECCENTRICITY   = .00172776
INCLINATION    = 82.5120
RA_OF_ASC_NODE = 289.7834
ARG_OF_PERICENTER = 205.8059
MEAN_ANOMALY   = 154.2297

EPHEMERIS_TYPE = 0
CLASSIFICATION_TYPE = U
NORAD_CAT_ID   = 18749
ELEMENT_SET_NO = 999
REV_AT_EPOCH   = 2712
BSTAR          = .64164325E-4
MEAN_MOTION_DOT = .578E-5
MEAN_MOTION_DDOT = 0

CCSDS_OMM_VERS = 2.0
CREATION_DATE  = 
ORIGINATOR     = 

OBJECT_NAME    = COSMOS 1933
OBJECT_ID      = 1988-020A
CENTER_NAME    = EARTH
REF_FRAME      = TEME
TIME_SYSTEM    = UTC
MEAN_ELEMENT_THEORY = SGP/SGP4

EPOCH          = 2025-11-29T07:07:35.179680
MEAN_MOTION    = 15.16943683
ECCENTRICITY   = .00044989
INCLINATION    = 82.5140
RA_OF_ASC_NODE = 350.1609
ARG_OF_PERICENTER = 166.3135
MEAN_ANOMALY   = 193.8221

EPHEMERIS_TYPE = 0
CLASSIFICATION_TYPE = U
NORAD_CAT_ID   = 18958
ELEMENT_SET_NO = 999
REV_AT_EPOCH   = 3500
BSTAR          = .18536006E-3
MEAN_MOTION_DOT = .3686E-4
MEAN_MOTION_DDOT = 0

CCSDS_OMM_VERS = 2.0
CREATION_DATE  = 
ORIGINATOR     = 

OBJECT_NAME    = SL-3 R/B
OBJECT_ID      = 1988-032B
CENTER_NAME    = EARTH
REF_FRAME      = TEME
TIME_SYSTEM    = UTC
MEAN_ELEMENT_THEORY = SGP/SGP4

EPOCH          = 2025-11-29T05:19:53.746176
MEAN_MOTION    = 15.18533220
ECCENTRICITY   = .00253424
INCLINATION    = 97.5070
RA_OF_ASC_NODE = 312.0396
ARG_OF_PERICENTER = 221.2101
MEAN_ANOMALY   = 138.7221

EPHEMERIS_TYPE = 0
CLASSIFICATION_TYPE = U
NORAD_CAT_ID   = 19046
ELEMENT_SET_NO = 999
REV_AT_EPOCH   = 3685
BSTAR          = .30028029E-3
MEAN_MOTION_DOT = .6182E-4
MEAN_MOTION_DDOT = 0

CCSDS_OMM_VERS = 2.0
CREATION_DATE  = 
ORIGINATOR     = 

OBJECT_NAME    = SL-16 R/B
OBJECT_ID      = 1988-039B
CENTER_NAME    = EARTH
REF_FRAME      = TEME
TIME_SYSTEM    = UTC
MEAN_ELEMENT_THEORY = SGP/SGP4

EPOCH          = 2025-11-29T06:55:17.223456
MEAN_MOTION    = 14.19592926
ECCENTRICITY   = .00202269
INCLINATION    = 71.0146
RA_OF_ASC_NODE = 280.8391
ARG_OF_PERICENTER = 138.8002
MEAN_ANOMALY   = 221.4654

EPHEMERIS_TYPE = 0
CLASSIFICATION_TYPE = U
NORAD_CAT_ID   = 19120
ELEMENT_SET_NO = 999
REV_AT_EPOCH   = 94413
BSTAR          = -.27777612E-4
MEAN_MOTION_DOT = -.107E-5
MEAN_MOTION_DDOT = 0

CCSDS_OMM_VERS = 2.0
CREATION_DATE  = 
ORIGINATOR     = 

OBJECT_NAME    = COSMOS 1953
OBJECT_ID      = 1988-050A
CENTER_NAME    = EARTH
REF_FRAME      = TEME
TIME_SYSTEM    = UTC
MEAN_ELEMENT_THEORY = SGP/SGP4

EPOCH          = 2025-11-29T06:27:31.700160
MEAN_MOTION    = 15.26694775
ECCENTRICITY   = .00136622
INCLINATION    = 82.5084
RA_OF_ASC_NODE = 259.0945
ARG_OF_PERICENTER = 112.3136
MEAN_ANOMALY   = 247.9553

EPHEMERIS_TYPE = 0
CLASSIFICATION_TYPE = U
NORAD_CAT_ID   = 19210
ELEMENT_SET_NO = 999
REV_AT_EPOCH   = 2245
BSTAR          = .24718935E-3
MEAN_MOTION_DOT = .6538E-4
MEAN_MOTION_DDOT = 0

CCSDS_OMM_VERS = 2.0
CREATION_DATE  = 
ORIGINATOR     = 

OBJECT_NAME    = SL-8 R/B
OBJECT_ID      = 1988-053B
CENTER_NAME    = EARTH
REF_FRAME      = TEME
TIME_SYSTEM    = UTC
MEAN_ELEMENT_THEORY = SGP/SGP4

EPOCH          = 2025-11-29T08:08:19.965408
MEAN_MOTION    = 14.38846115
ECCENTRICITY   = .00193697
INCLINATION    = 74.0472
RA_OF_ASC_NODE = 297.4174
ARG_OF_PERICENTER = 146.2836
MEAN_ANOMALY   = 322.5902

EPHEMERIS_TYPE = 0
CLASSIFICATION_TYPE = U
NORAD_CAT_ID   = 19257
ELEMENT_SET_NO = 999
REV_AT_EPOCH   = 96216
BSTAR          = .90839169E-4
MEAN_MOTION_DOT = .254E-5
MEAN_MOTION_DDOT = 0

CCSDS_OMM_VERS = 2.0
CREATION_DATE  = 
ORIGINATOR     = 

OBJECT_NAME    = COSMOS 1975
OBJECT_ID      = 1988-093A
CENTER_NAME    = EARTH
REF_FRAME      = TEME
TIME_SYSTEM    = UTC
MEAN_ELEMENT_THEORY = SGP/SGP4

EPOCH          = 2025-11-29T03:28:11.081280
MEAN_MOTION    = 15.26165501
ECCENTRICITY   = .00118171
INCLINATION    = 82.5211
RA_OF_ASC_NODE = 218.4343
ARG_OF_PERICENTER = 155.9121
MEAN_ANOMALY   = 204.2673

EPHEMERIS_TYPE = 0
CLASSIFICATION_TYPE = U
NORAD_CAT_ID   = 19573
ELEMENT_SET_NO = 999
REV_AT_EPOCH   = 406
BSTAR          = .3204839E-3
MEAN_MOTION_DOT = .8328E-4
MEAN_MOTION_DDOT = 0

CCSDS_OMM_VERS = 2.0
CREATION_DATE  = 
ORIGINATOR     = 

OBJECT_NAME    = SL-14 R/B
OBJECT_ID      = 1988-093B
CENTER_NAME    = EARTH
REF_FRAME      = TEME
TIME_SYSTEM    = UTC
MEAN_ELEMENT_THEORY = SGP/SGP4

EPOCH          = 2025-11-28T21:49:38.299584
MEAN_MOTION    = 14.85525961
ECCENTRICITY   = .00211135
INCLINATION    = 82.5294
RA_OF_ASC_NODE = 136.6461
ARG_OF_PERICENTER = 15.8122
MEAN_ANOMALY   = 98.6164

EPHEMERIS_TYPE = 0
CLASSIFICATION_TYPE = U
NORAD_CAT_ID   = 19574
ELEMENT_SET_NO = 999
REV_AT_EPOCH   = 98607
BSTAR          = .64989343E-4
MEAN_MOTION_DOT = .588E-5
MEAN_MOTION_DDOT = 0

CCSDS_OMM_VERS = 2.0
CREATION_DATE  = 
ORIGINATOR     = 

OBJECT_NAME    = SL-16 R/B
OBJECT_ID      = 1988-102B
CENTER_NAME    = EARTH
REF_FRAME      = TEME
TIME_SYSTEM    = UTC
MEAN_ELEMENT_THEORY = SGP/SGP4

EPOCH          = 2025-11-29T07:41:04.431552
MEAN_MOTION    = 14.16137021
ECCENTRICITY   = .00136821
INCLINATION    = 71.0008
RA_OF_ASC_NODE = 2.6803
ARG_OF_PERICENTER = 173.6013
MEAN_ANOMALY   = 186.5287

EPHEMERIS_TYPE = 0
CLASSIFICATION_TYPE = U
NORAD_CAT_ID   = 19650
ELEMENT_SET_NO = 999
REV_AT_EPOCH   = 91268
BSTAR          = .47998755E-4
MEAN_MOTION_DOT = .47E-6
MEAN_MOTION_DDOT = 0

CCSDS_OMM_VERS = 2.0
CREATION_DATE  = 
ORIGINATOR     = 

OBJECT_NAME    = INTERCOSMOS 24
OBJECT_ID      = 1989-080A
CENTER_NAME    = EARTH
REF_FRAME      = TEME
TIME_SYSTEM    = UTC
MEAN_ELEMENT_THEORY = SGP/SGP4

EPOCH          = 2025-11-28T23:58:55.927488
MEAN_MOTION    = 12.59402313
ECCENTRICITY   = .11886363
INCLINATION    = 82.6046
RA_OF_ASC_NODE = 169.8871
ARG_OF_PERICENTER = 166.3867
MEAN_ANOMALY   = 197.2515

EPHEMERIS_TYPE = 0
CLASSIFICATION_TYPE = U
NORAD_CAT_ID   = 20261
ELEMENT_SET_NO = 999
REV_AT_EPOCH   = 65412
BSTAR          = .24311831E-3
MEAN_MOTION_DOT = .844E-5
MEAN_MOTION_DDOT = 0

CCSDS_OMM_VERS = 2.0
CREATION_DATE  = 
ORIGINATOR     = 

OBJECT_NAME    = SL-14 R/B
OBJECT_ID      = 1989-080C
CENTER_NAME    = EARTH
REF_FRAME      = TEME
TIME_SYSTEM    = UTC
MEAN_ELEMENT_THEORY = SGP/SGP4

EPOCH          = 2025-11-29T05:21:16.573536
MEAN_MOTION    = 12.50396283
ECCENTRICITY   = .1230874
INCLINATION    = 82.5940
RA_OF_ASC_NODE = 237.6950
ARG_OF_PERICENTER = 54.4727
MEAN_ANOMALY   = 316.4979

EPHEMERIS_TYPE = 0
CLASSIFICATION_TYPE = U
NORAD_CAT_ID   = 20262
ELEMENT_SET_NO = 999
REV_AT_EPOCH   = 64759
BSTAR          = .12646301E-3
MEAN_MOTION_DOT = .446E-5
MEAN_MOTION_DDOT = 0

CCSDS_OMM_VERS = 2.0
CREATION_DATE  = 
ORIGINATOR     = 

OBJECT_NAME    = DELTA 1 R/B
OBJECT_ID      = 1989-089B
CENTER_NAME    = EARTH
REF_FRAME      = TEME
TIME_SYSTEM    = UTC
MEAN_ELEMENT_THEORY = SGP/SGP4

EPOCH          = 2025-11-29T04:31:36.795648
MEAN_MOTION    = 14.50554993
ECCENTRICITY   = .00707138
INCLINATION    = 97.0762
RA_OF_ASC_NODE = 191.5731
ARG_OF_PERICENTER = 80.3248
MEAN_ANOMALY   = 280.5929

EPHEMERIS_TYPE = 0
CLASSIFICATION_TYPE = U
NORAD_CAT_ID   = 20323
ELEMENT_SET_NO = 999
REV_AT_EPOCH   = 88116
BSTAR          = .10825778E-3
MEAN_MOTION_DOT = .403E-5
MEAN_MOTION_DDOT = 0

